ZipCode,County,Lat,Lng
95412,Sonoma County,38.7138916,-123.3261671
95017,Santa Cruz County,37.0918582,-122.2313539
94020,San Mateo County,37.2911153,-122.2086579
94060,San Mateo County,37.2051162,-122.3334258
93110,Santa Barbara County,34.5084312,-119.7310213
93920,Monterey County,36.0514956,-121.5141615
95559,Humboldt County,40.1966177,-123.8004324
96142,El Dorado County,39.0501303,-120.1416089
93224,Kern County,35.2031054,-119.5803605
95033,Santa Clara County,37.16110400000001,-121.9700618
91980,San Diego County,32.5841377,-116.6140621
95488,Mendocino County,39.716228,-123.7741195
95553,Humboldt County,40.2661253,-123.9278088
95421,Sonoma County,38.6073529,-123.1913722
95542,Humboldt County,40.0893047,-123.7038831
94922,Sonoma County,38.3412889,-122.9494009
94567,Napa County,38.6844198,-122.4693688
95762,El Dorado County,38.6575905,-121.0564425
92555,Riverside County,33.9206847,-117.1147095
95554,Humboldt County,40.2676912,-123.7823278
94549,Contra Costa County,37.8929461,-122.1178261
95589,Humboldt County,40.0203165,-123.9688785
93041,Ventura County,34.1451995,-119.1942983
96061,Tehama County,40.3696189,-121.4684703
95549,Humboldt County,40.6161714,-123.8602647
93103,Santa Barbara County,34.433094,-119.6817845
93271,Tulare County,36.4495198,-118.7198004
93219,Tulare County,39.28811839999999,-123.2475594
96113,Lassen County,40.1462051,-120.1170664
95366,San Joaquin County,37.7514303,-121.1481284
95012,Monterey County,36.7646209,-121.7594384
93255,Kern County,35.7377864,-118.0654445
93720,Fresno County,36.8638688,-119.7715563
95573,Humboldt County,40.9089201,-123.6596995
95571,Humboldt County,40.3322706,-123.9111517
94576,Napa County,38.5600327,-122.4835193
90010,Los Angeles County,34.0625448,-118.3089341
93109,Santa Barbara County,34.4038383,-119.7252297
92807,Orange County,33.8459536,-117.7901088
91326,Los Angeles County,34.2894584,-118.5622893
95637,Yolo County,38.8297286,-122.2427
95560,Humboldt County,40.13103479999999,-123.858434
94123,San Francisco County,37.8020405,-122.4382307
94505,Contra Costa County,37.9011827,-121.6022434
94105,San Francisco County,37.7890183,-122.3915063
92539,Riverside County,33.5257713,-116.6317514
94133,San Francisco County,37.8059887,-122.4099154
94111,San Francisco County,37.79593620000001,-122.4000032
95960,Nevada County,39.4259125,-121.0449768
93441,Santa Barbara County,34.7761654,-119.9913964
96009,Lassen County,41.028815,-120.9362113
95922,Yuba County,39.4882143,-121.0564425
90704,Los Angeles County,33.36146310000001,-118.4396756
94552,Alameda County,37.71045760000001,-122.026918
95636,El Dorado County,38.6289451,-120.3666099
94963,Marin County,38.0046478,-122.6588267
93105,Santa Barbara County,34.4402467,-119.7289889
94108,San Francisco County,37.7909427,-122.4084994
92242,San Bernardino County,34.1705136,-114.3222577
94102,San Francisco County,37.7786871,-122.4212424
95698,Yolo County,38.8018286,-121.918866
95459,Mendocino County,38.9624117,-123.5951925
94938,Marin County,38.0152314,-122.7237843
95043,San Benito County,36.5501406,-120.9417368
94109,San Francisco County,37.7929789,-122.4212424
95321,Tuolumne County,37.8492572,-119.9277947
92210,Riverside County,33.6871383,-116.3367515
92602,Orange County,33.7514861,-117.7549295
93924,Monterey County,36.4799547,-121.7327145
95064,Santa Cruz County,36.9923139,-122.0581762
95961,Yuba County,34.5639731,-117.3498955
96136,Lassen County,40.3168394,-120.1358346
90743,Orange County,33.7284052,-118.084295
92603,Orange County,33.6332102,-117.7959713
90015,Los Angeles County,34.0390107,-118.2672801
93667,Fresno County,36.9349122,-119.3482646
96114,Lassen County,40.2847946,-120.5048792
92637,Orange County,33.6108676,-117.7285406
94103,San Francisco County,37.7726402,-122.4099154
94965,Marin County,37.8444843,-122.5089856
92618,Orange County,33.665242,-117.7490656
94018,San Mateo County,37.5017068,-122.4688381
94920,Marin County,37.8839827,-122.4580469
92101,San Diego County,37.5641425,-122.004179
93111,Santa Barbara County,34.4630827,-119.8062912
92086,San Diego County,33.3066657,-116.6789163
92881,Riverside County,33.840139,-117.5378439
93510,Los Angeles County,34.4600722,-118.2292712
95433,Sonoma County,38.3004099,-122.486703
95467,Lake County,38.7977373,-122.5429309
96021,Tehama County,39.8994909,-122.2200065
92673,Orange County,33.4662881,-117.6317494
93908,Monterey County,36.5981753,-121.5826642
94107,San Francisco County,32.9657005,-117.1147095
94964,Marin County,37.94018,-122.4877642
94929,Marin County,38.2573286,-122.9691183
92211,Riverside County,33.7637689,-116.3426552
93238,Kern County,35.8453422,-118.5097517
95525,Humboldt County,40.9309419,-123.8223634
96117,Lassen County,40.5756358,-120.2051096
95930,Butte County,39.5415926,-121.1767658
92612,Orange County,33.6588951,-117.8282121
93645,Madera County,37.1602241,-119.638326
96059,Tehama County,40.4350199,-121.8289745
94025,San Mateo County,37.4484914,-122.1802812
96146,Placer County,39.1630575,-120.2281933
94021,San Mateo County,37.2704205,-122.2767313
92620,Orange County,33.7073908,-117.7666567
93117,Santa Barbara County,34.4301656,-119.8696691
91917,San Diego County,32.6136117,-116.7378585
92694,Orange County,33.5507512,-117.6411674
94131,San Francisco County,37.7401042,-122.4382307
94972,Sonoma County,38.2971176,-122.9550349
92604,Orange County,33.6913751,-117.7901088
95045,San Benito County,36.8322484,-121.5141615
93426,San Luis Obispo County,35.8425661,-120.9417368
95420,Mendocino County,39.338086,-123.7350084
94104,San Francisco County,37.7911148,-122.4021273
92253,Riverside County,33.6562975,-116.2895173
92660,Orange County,33.6301328,-117.8721676
93955,Monterey County,36.6216869,-121.7993168
94117,San Francisco County,34.275113,-118.7095413
95014,Santa Clara County,37.31317,-122.0723816
92614,Orange County,33.6832497,-117.8340735
90028,Los Angeles County,34.1012181,-118.325739
91789,Los Angeles County,34.0130769,-117.8428651
92203,Riverside County,33.745603,-116.1713917
94595,Contra Costa County,37.8655663,-122.0666997
95141,Santa Clara County,37.1676857,-121.7708337
92806,Orange County,33.8362104,-117.8721676
92606,Orange County,33.6912614,-117.8223506
92270,Riverside County,33.7694489,-116.431192
92004,San Diego County,33.2566501,-116.3749797
94115,San Francisco County,37.7877522,-122.4382307
96080,Tehama County,38.3986068,-122.7520139
90017,Los Angeles County,34.0543797,-118.2672801
92657,Orange County,33.5974299,-117.8370041
95415,Mendocino County,39.022009,-123.3822764
95428,Mendocino County,39.8066831,-123.213851
91362,Ventura County,34.1971476,-118.824722
96130,Lassen County,40.6402981,-120.6199895
92782,Orange County,33.7344836,-117.7930401
93620,Merced County,37.0455625,-120.6429991
95450,Sonoma County,38.4542093,-123.1126559
95419,Sonoma County,38.4248846,-122.9582487
93435,San Luis Obispo County,35.5033829,-121.0392436
90274,Los Angeles County,33.7793751,-118.3520389
94087,Santa Clara County,37.3492097,-122.0326019
91007,Los Angeles County,34.1216975,-118.0478826
93664,Fresno County,37.0875479,-118.9994357
96109,Lassen County,40.0060389,-120.112735
91377,Ventura County,34.1880333,-118.7606115
94508,Napa County,38.5725972,-122.4353995
90067,Los Angeles County,34.0571327,-118.4148498
90290,Los Angeles County,34.1076983,-118.61481
95925,Butte County,39.4828107,-121.1538564
95735,El Dorado County,38.8153606,-120.147383
93013,Santa Barbara County,34.4212588,-119.4875668
93552,Los Angeles County,34.5811542,-118.0303189
95537,Humboldt County,40.7242937,-124.2178534
95490,Mendocino County,39.505272,-123.3486147
94038,San Mateo County,37.5463543,-122.4863492
95558,Humboldt County,40.2800107,-124.1939287
92883,Riverside County,33.7407483,-117.4791295
94933,Marin County,38.0008669,-122.6786008
90275,Los Angeles County,33.7456493,-118.3637264
96055,Tehama County,40.0780017,-122.0610174
91963,San Diego County,32.6590536,-116.5845767
91765,Los Angeles County,33.9945546,-117.8135579
93206,Kern County,35.4283801,-119.4875668
94158,San Francisco County,37.7748363,-122.3872576
90405,Los Angeles County,34.00974600000001,-118.4659576
92624,Orange County,33.4559258,-117.6640187
95445,Mendocino County,38.8053731,-123.5056016
95253,San Joaquin County,38.137643,-121.2065426
92823,Orange County,33.9254328,-117.8018337
93428,San Luis Obispo County,35.5925142,-121.0564425
93312,Kern County,35.3734151,-119.1274334
90505,Los Angeles County,33.8101772,-118.3520389
96128,Lassen County,40.3494181,-120.378138
94305,Santa Clara County,37.4135757,-122.1689284
95524,Humboldt County,40.8221629,-124.0494434
96035,Tehama County,40.0358413,-122.1973081
93901,Monterey County,36.6623815,-121.6454222
94568,Alameda County,37.7202463,-121.8676464
92692,Orange County,38.7637052,-121.2912463
93012,Ventura County,34.2295937,-118.9761519
93067,Santa Barbara County,34.4205066,-119.601738
95616,Yolo County,38.5474428,-121.7765309
91962,San Diego County,32.7750935,-116.4429944
92887,Orange County,33.8976995,-117.7256083
92070,San Diego County,33.2123927,-116.7260713
94114,San Francisco County,37.7561438,-122.4325682
94556,Contra Costa County,37.8357202,-122.1178261
96092,Butte County,39.9811574,-122.0155491
95521,Humboldt County,40.8805372,-124.0874754
92801,Orange County,33.8469812,-117.9541894
92677,Orange County,33.5320292,-117.702148
95645,Yolo County,38.8933855,-121.7879244
95674,Sutter County,38.9578663,-121.4798948
96090,Tehama County,40.0233664,-122.1220856
95258,San Joaquin County,38.1673741,-121.3141291
93429,Santa Barbara County,34.8454172,-120.5451797
93463,Santa Barbara County,34.6182169,-120.147383
90503,Los Angeles County,33.8409696,-118.3520389
91320,Ventura County,34.1810666,-118.9470422
95051,Santa Clara County,37.3598283,-121.9814354
96141,Placer County,39.0782648,-120.1762494
94110,San Francisco County,37.7485824,-122.4184108
91344,Los Angeles County,33.8802416,-117.8604472
90808,Los Angeles County,33.8197825,-118.1064156
93285,Kern County,35.7249556,-118.5097517
92676,Orange County,33.7480914,-117.6200138
95410,Mendocino County,39.2134955,-123.7629465
93314,Kern County,35.382088,-119.2088303
95471,Sonoma County,38.5212786,-122.9816867
94506,Contra Costa County,34.2039087,-118.2935891
92706,Orange County,33.7645595,-117.8809574
92656,Orange County,33.5714289,-117.7314729
95456,Mendocino County,39.2717672,-123.7898088
94973,Marin County,38.0051761,-122.6418745
92835,Orange County,33.9041552,-117.9307584
93657,Fresno County,36.7916817,-119.4411476
92675,Orange County,33.5039207,-117.5613246
93531,Kern County,35.224821,-118.61481
95432,Mendocino County,39.0963141,-123.6399562
93001,Ventura County,33.81567709999999,-117.2088167
92679,Orange County,33.5941759,-117.5730639
95717,Placer County,39.1884372,-120.844152
95003,Santa Cruz County,37.9193365,-122.0780632
91301,Los Angeles County,34.1129907,-118.754782
95023,San Benito County,36.9119865,-121.3084088
91906,San Diego County,32.6804705,-116.4901981
90013,Los Angeles County,34.0445905,-118.2405557
95551,Humboldt County,40.6691318,-124.1816517
91361,Ventura County,34.1384626,-118.8946309
92648,Orange County,33.6781963,-118.0127534
95460,Mendocino County,39.2908752,-123.6958809
91741,Los Angeles County,34.1568319,-117.8428651
93401,San Luis Obispo County,35.2454989,-120.5969758
91367,Los Angeles County,34.1785255,-118.597305
94002,San Mateo County,37.5178022,-122.2900288
95360,Stanislaus County,37.2490019,-121.2168466
93108,Santa Barbara County,34.4381407,-119.6151426
92649,Orange County,33.721051,-118.0478826
95313,Stanislaus County,37.4121145,-121.0220422
93460,Santa Barbara County,34.6627116,-120.0202964
95470,Mendocino County,39.28811839999999,-123.2475594
92627,Orange County,33.6496252,-117.9190418
95501,Humboldt County,40.8134774,-124.1460963
92808,Orange County,33.8416068,-117.702148
93311,Kern County,35.1268513,-119.1855785
94129,San Francisco County,37.793323,-122.4665384
92260,Riverside County,33.6917281,-116.4075854
95519,Humboldt County,40.9373196,-124.0312661
95131,Santa Clara County,37.3902956,-121.8961047
93602,Fresno County,37.0795598,-119.3947135
91101,Los Angeles County,34.1427587,-118.1386005
95437,Mendocino County,39.4513714,-123.6846987
95715,Placer County,39.2444916,-120.7005044
92861,Orange County,33.8177801,-117.8106269
90603,Los Angeles County,33.9443011,-117.9931472
91360,Ventura County,34.2024698,-118.8741429
91324,Los Angeles County,34.2413938,-118.5506158
91711,Los Angeles County,34.1707374,-117.702148
95648,Placer County,38.9052036,-121.3084088
92610,Orange County,33.6917217,-117.6610854
95618,Yolo County,38.518893,-121.6511258
93021,Ventura County,34.2942772,-118.8829816
92886,Orange County,33.9011405,-117.7959713
92672,Orange County,33.4154744,-117.5848025
92066,San Diego County,33.2248091,-116.4901981
93010,Ventura County,34.2330908,-119.0809012
91106,Los Angeles County,34.1456654,-118.1268976
93420,San Luis Obispo County,35.1777937,-120.4818446
90802,Los Angeles County,33.7415317,-118.1941785
95543,Del Norte County,41.8717464,-123.881651
90012,Los Angeles County,34.0653347,-118.243891
93101,Santa Barbara County,34.420334,-119.7107494
93003,Ventura County,34.2985355,-119.2204548
91302,Los Angeles County,34.1307949,-118.6848112
93926,Monterey County,36.5283778,-121.3884671
93033,Ventura County,34.1599885,-119.1274334
96121,Lassen County,40.17594769999999,-120.3666099
93730,Fresno County,36.9063167,-119.7599761
92653,Orange County,33.590277,-117.6962824
96068,Lassen County,41.1055174,-121.1954797
91773,Los Angeles County,34.1009953,-117.8194197
92629,Orange County,33.4699974,-117.702148
95409,Sonoma County,37.5359468,-120.8613785
93628,Fresno County,36.7708505,-118.9295737
93004,Ventura County,34.2765778,-119.1681373
92691,Orange County,33.6062809,-117.6728185
95918,Yuba County,39.2939803,-121.3312882
93727,Fresno County,36.7486376,-119.7078532
91763,San Bernardino County,34.0745742,-117.6962824
90278,Los Angeles County,33.865913,-118.3754131
95528,Humboldt County,40.4931837,-123.8913602
95697,Yolo County,38.7330062,-121.8057244
91381,Los Angeles County,33.9508728,-118.4455164
94566,Alameda County,37.6436199,-121.8676464
92630,Orange County,33.6447519,-117.6845508
90814,Los Angeles County,33.7709051,-118.1429889
94118,San Francisco County,37.7822891,-122.463708
90803,Los Angeles County,33.7523035,-118.1298234
92061,San Diego County,33.3243386,-116.9616941
94516,Contra Costa County,37.8251445,-122.1604131
95494,Mendocino County,38.9004765,-123.3261671
91905,San Diego County,32.6810703,-116.3013267
92805,Orange County,33.8276052,-117.9073244
92647,Orange County,33.7222674,-118.0010421
93405,San Luis Obispo County,35.2994482,-120.6890055
93063,Ventura County,34.275113,-118.7095413
91008,Los Angeles County,34.1624549,-117.9659037
90020,Los Angeles County,34.0655627,-118.3096648
92305,San Bernardino County,34.1752565,-116.8674757
93432,San Luis Obispo County,35.4830274,-120.4588059
90731,Los Angeles County,33.7241323,-118.2643567
91006,Los Angeles County,34.1172361,-118.0244639
95482,Mendocino County,39.14119700000001,-123.213851
91750,Los Angeles County,33.7526686,-117.9190418
91748,Los Angeles County,33.9810337,-117.8897468
95426,Lake County,38.82142959999999,-122.7191963
90049,Los Angeles County,34.0963058,-118.4980744
95461,Lake County,38.7548746,-122.6051351
92821,Orange County,33.9316733,-117.8604472
92646,Orange County,33.6587745,-117.9659037
93651,Fresno County,34.3780816,-117.9014654
92254,Riverside County,33.5381708,-115.9822747
91708,San Bernardino County,33.9522626,-117.6493515
90703,Los Angeles County,33.8724552,-118.0595907
90024,Los Angeles County,34.0631451,-118.4367551
91780,Los Angeles County,34.0982956,-118.0595907
91740,Los Angeles County,34.1194758,-117.848726
93036,Ventura County,34.2328937,-119.179765
95623,El Dorado County,38.6100779,-120.8613785
92037,San Diego County,32.8283259,-117.255854
92688,Orange County,33.63736,-117.6082774
93035,Ventura County,34.1903021,-119.2262667
95607,Yolo County,38.7963491,-122.1064668
92091,San Diego County,33.04680030000001,-117.1911749
95454,Mendocino County,39.855248,-123.5175413
91724,Los Angeles County,34.0858034,-117.8604472
91604,Los Angeles County,34.1366259,-118.3987842
95953,Sutter County,39.269055,-121.7879244
95914,Butte County,39.417587,-121.3884671
90005,Los Angeles County,34.0578814,-118.3096648
92866,Orange County,33.78344939999999,-117.8457956
96148,Placer County,39.2597037,-120.0549683
90277,Los Angeles County,33.8322129,-118.3870991
90623,Orange County,33.8477954,-118.0449554
95627,Yolo County,38.6733773,-122.0155491
92586,Riverside County,33.7084855,-117.2029363
95633,El Dorado County,38.8520489,-120.7809676
94030,San Mateo County,37.5958949,-122.4184108
93015,Ventura County,34.4163612,-118.8829816
94618,Alameda County,37.8438192,-122.2398636
93451,San Luis Obispo County,35.8674281,-120.5739579
91745,Los Angeles County,33.9990858,-117.9834738
93060,Ventura County,34.4089106,-119.0692659
92327,San Bernardino County,34.8667466,-116.8556955
93240,Kern County,35.6283762,-118.4163103
93453,San Luis Obispo County,35.4137653,-120.2051096
91340,Los Angeles County,34.2913046,-118.4338345
94597,Contra Costa County,37.9193365,-122.0780632
92869,Orange County,33.8038894,-117.77252
92831,Orange County,33.881922,-117.8956062
90630,Orange County,33.816539,-118.0361736
91307,Los Angeles County,34.2124444,-118.6848112
91354,Los Angeles County,34.4627169,-118.5622893
94971,Marin County,38.2547479,-122.9099545
94707,Alameda County,37.8983665,-122.2795667
91024,Los Angeles County,34.1934312,-118.0478826
95694,Yolo County,38.5600699,-122.0155491
94586,Alameda County,37.5867626,-121.8334868
95070,Santa Clara County,37.2638319,-122.023004
95548,Del Norte County,41.5863265,-124.0391342
94559,Napa County,38.22965,-122.3220894
92870,Orange County,33.8802416,-117.8604472
93023,Ventura County,34.5125711,-119.3714909
95416,Sonoma County,38.3137649,-122.4812958
94121,San Francisco County,37.7813454,-122.497668
92705,Orange County,33.7532358,-117.7901088
93065,Ventura County,34.2774306,-118.7897558
90292,Los Angeles County,33.9684276,-118.4571974
90755,Los Angeles County,33.8020217,-118.1678543
90048,Los Angeles County,34.0741548,-118.3724915
93950,Monterey County,36.62011800000001,-121.918866
90403,Los Angeles County,34.0279895,-118.495155
95540,Humboldt County,40.60718050000001,-124.1132746
94019,San Mateo County,37.4903082,-122.4353995
91423,Los Angeles County,34.1482691,-118.4338345
95129,Santa Clara County,37.3052272,-121.9871217
91406,Los Angeles County,34.1985119,-118.4980744
90069,Los Angeles County,34.0931603,-118.3783347
92833,Orange County,33.8749591,-117.9659037
90014,Los Angeles County,34.0434783,-118.2519314
91709,San Bernardino County,33.959453,-117.7256083
91355,Los Angeles County,34.4400287,-118.5914696
95926,Butte County,39.7461315,-121.8448745
92708,Orange County,33.7168761,-117.9600466
91792,Los Angeles County,34.0332214,-117.9073244
91107,Los Angeles County,34.16423960000001,-118.0830047
92865,Orange County,33.8316472,-117.848726
91356,Los Angeles County,37.3304014,-121.8391808
91914,San Diego County,32.6762339,-116.9440313
92663,Orange County,33.615828,-117.9307584
94956,Marin County,38.0373567,-122.8197329
91754,Los Angeles County,34.0472318,-118.1415261
93609,Fresno County,36.52027750000001,-119.8583772
95686,San Joaquin County,38.231148,-121.4770388
93619,Fresno County,34.1789379,-118.4338345
94904,Marin County,37.941063,-122.5655549
92845,Orange County,33.7852683,-118.0273914
92867,Orange County,33.8186385,-117.8282121
91405,Los Angeles County,34.2037124,-118.4571974
91755,Los Angeles County,34.0427819,-118.1181199
94599,Napa County,38.39844600000001,-122.373094
93444,San Luis Obispo County,35.0443612,-120.4588059
95032,Santa Clara County,37.2260616,-121.9302449
90732,Los Angeles County,33.7349075,-118.3140488
95919,Yuba County,39.4338542,-121.2397438
95562,Humboldt County,40.4175329,-124.1184839
91784,San Bernardino County,34.1616368,-117.6552185
94548,Contra Costa County,37.9714216,-121.6639577
94542,Alameda County,37.6561165,-122.0326019
96143,Placer County,39.2569504,-120.0145169
91390,Los Angeles County,34.4964601,-118.3346172
94941,Marin County,37.9060624,-122.5712101
93940,Monterey County,36.5760412,-121.822098
92626,Orange County,33.6834142,-117.9073244
94960,Marin County,37.9885355,-122.5655549
91403,Los Angeles County,34.1423899,-118.4571974
92130,San Diego County,32.9436607,-117.2088167
90025,Los Angeles County,34.0448583,-118.4484367
95531,Del Norte County,41.7557501,-124.2025913
95942,Butte County,40.0694093,-121.6054893
94583,Contra Costa County,37.7624642,-121.9814354
93563,Los Angeles County,34.4053384,-117.7490656
90404,Los Angeles County,34.02875,-118.4717975
93440,Santa Barbara County,34.7445591,-120.2779508
95457,Lake County,38.858136,-122.5146439
94404,San Mateo County,33.7963296,-118.1181199
94930,Marin County,37.9873145,-122.5891656
92124,San Diego County,32.8250787,-117.091176
91105,Los Angeles County,34.1406082,-118.1678543
90260,Los Angeles County,33.8922687,-118.3520389
95493,Lake County,39.225185,-122.9944636
92584,Riverside County,33.6557387,-117.185294
90638,Los Angeles County,33.9045543,-118.0127534
94037,San Mateo County,37.5409047,-122.5118148
94704,Alameda County,37.86373760000001,-122.2682245
94555,Alameda County,37.5677679,-122.0522177
91602,Los Angeles County,34.1487141,-118.3608046
94127,San Francisco County,37.734646,-122.463708
95132,Santa Clara County,37.4010609,-121.8643855
95492,Sonoma County,35.3964972,-118.9819731
92333,San Bernardino County,34.2636333,-116.9734685
93601,Madera County,37.38881900000001,-119.7310213
93449,San Luis Obispo County,35.16628600000001,-120.6487508
93523,Kern County,34.9609579,-117.8545867
92780,Orange County,33.7372177,-117.8135579
94044,San Mateo County,37.6101767,-122.4806894
92103,San Diego County,32.749789,-117.1676501
95451,Lake County,38.9230082,-122.7858791
91316,Los Angeles County,34.1583323,-118.5155901
92662,Orange County,33.6061462,-117.8912117
93066,Ventura County,34.2989933,-119.0227159
91801,Los Angeles County,38.1256242,-122.1973081
93313,Kern County,34.10885,-118.2234229
92078,San Diego County,33.1158665,-117.185294
91601,Los Angeles County,34.1658804,-118.3637264
92106,San Diego County,34.1579788,-117.9424743
90401,Los Angeles County,34.0126379,-118.495155
95747,Placer County,38.7902545,-121.3770336
92036,San Diego County,33.0157829,-116.4901981
95503,Humboldt County,40.7306343,-124.082682
91364,Los Angeles County,34.1544724,-118.5914696
92840,Orange County,33.7876938,-117.9336874
94070,San Mateo County,37.4975165,-122.2710602
95634,El Dorado County,38.9167124,-120.6890055
95606,Yolo County,38.7684692,-122.1973081
92011,San Diego County,33.105162,-117.2970026
92227,Imperial County,33.00010779999999,-115.3311689
94304,Santa Clara County,37.3813444,-122.1802812
92802,Orange County,33.8124094,-117.9192679
92880,Riverside County,33.8998939,-117.6317494
95946,Nevada County,39.2836679,-121.2397438
95128,Santa Clara County,37.3189149,-121.9416226
91401,Los Angeles County,34.1789379,-118.4338345
92003,San Diego County,33.2822878,-117.185294
90094,Los Angeles County,33.97448060000001,-118.4177707
95765,Placer County,38.8113924,-121.2740813
96051,Shasta County,40.9608794,-122.3844187
95006,Santa Cruz County,37.1833232,-122.151897
93265,Tulare County,36.2106674,-118.7198004
95110,Santa Clara County,37.354611,-121.918866
95462,Sonoma County,38.4672117,-123.0198024
94526,Contra Costa County,33.8803536,-118.2351192
91776,Los Angeles County,34.0895991,-118.0947106
95073,Santa Cruz County,37.0459268,-121.9359339
91723,Los Angeles County,34.0870296,-117.8868171
95443,Lake County,39.0322199,-122.7403702
93040,Ventura County,34.5096515,-118.8363756
92127,San Diego County,38.5890819,-121.4084731
91737,San Bernardino County,34.1787581,-117.5848025
92339,San Bernardino County,34.0946892,-116.9028125
92832,Orange County,33.8733037,-117.9307584
93535,Los Angeles County,34.7311394,-117.8780275
95726,El Dorado County,38.7931476,-120.4588059
91935,San Diego County,32.6890231,-116.8203511
90720,Orange County,33.7976003,-118.0712981
95466,Mendocino County,39.1028702,-123.5056016
94949,Marin County,38.0599857,-122.503327
92110,San Diego County,32.7657318,-117.199996
95135,Santa Clara County,37.2751505,-121.685341
94598,Contra Costa County,37.89618249999999,-121.9814354
93668,Fresno County,36.6411184,-120.2743484
95721,El Dorado County,38.8349932,-120.078078
96075,Tehama County,38.6969922,-121.5940773
95526,Humboldt County,40.4606038,-123.6497843
95005,Santa Cruz County,37.0945364,-122.0951062
94563,Contra Costa County,37.8912529,-122.1859572
92108,San Diego County,32.7742488,-117.1411815
95127,Santa Clara County,37.373498,-121.7594384
95008,Santa Clara County,37.2770029,-121.9529992
90712,Los Angeles County,33.8493162,-118.153228
90006,Los Angeles County,34.0470832,-118.2965121
91311,Los Angeles County,34.2710376,-118.61481
90046,Los Angeles County,34.1147313,-118.3637264
93962,Monterey County,36.6250909,-121.6461352
94539,Alameda County,37.5148444,-121.9131761
90501,Los Angeles County,33.8291867,-118.3169714
91502,Los Angeles County,34.1772371,-118.3082034
90815,Los Angeles County,33.7963296,-118.1181199
95709,El Dorado County,38.7586142,-120.6775054
93710,Fresno County,37.2589827,-121.8847222
91016,Los Angeles County,34.1574588,-118.0068979
93465,San Luis Obispo County,35.5316951,-120.7464897
92128,San Diego County,33.0013938,-117.0735241
95041,Santa Cruz County,37.0510751,-122.0584474
93442,San Luis Obispo County,35.4197336,-120.8269231
96123,Lassen County,40.8416845,-120.2444251
95959,Nevada County,39.3153201,-120.9417368
92548,Riverside County,33.7552579,-117.1147095
95449,Mendocino County,38.9351173,-123.1014056
91791,Los Angeles County,34.0566376,-117.8956062
93626,Fresno County,37.0429444,-119.6730939
93555,Kern County,37.7630254,-121.2397438
90621,Orange County,33.8794822,-117.9893301
93907,Monterey County,36.7918545,-121.6511258
91775,Los Angeles County,34.1232517,-118.0830047
95054,Santa Clara County,38.743802,-121.1824925
93446,San Luis Obispo County,35.6573145,-120.7579834
95405,Sonoma County,38.43922999999999,-122.6673018
95010,Santa Cruz County,36.9764598,-121.9501551
93723,Fresno County,36.7702756,-119.950926
92868,Orange County,33.78659,-117.8750976
93022,Ventura County,34.3925151,-119.3076098
91770,Los Angeles County,34.06173649999999,-118.0830047
92365,San Bernardino County,34.8628939,-116.6553351
95811,Sacramento County,38.5967128,-121.4941738
94507,Contra Costa County,37.8541701,-122.0098642
94560,Alameda County,37.5189256,-122.026918
94572,Contra Costa County,38.02923,-122.2483726
94923,Sonoma County,38.3251691,-123.0451347
94925,Marin County,37.920558,-122.5089856
95536,Humboldt County,40.4998302,-124.2649051
93226,Kern County,35.756937,-118.6964752
93461,San Luis Obispo County,35.6271932,-120.2974199
90631,Orange County,33.9226618,-117.9600466
93711,Fresno County,36.8381393,-119.829443
94558,Napa County,38.3170536,-122.3019206
94945,Marin County,38.1218145,-122.5485873
91335,Los Angeles County,34.2035088,-118.5389414
95444,Sonoma County,38.4336687,-122.8690828
95066,Santa Cruz County,37.0702838,-122.0155491
92844,Orange County,33.7636344,-117.9688322
92683,Orange County,33.7531536,-118.0010421
94582,Contra Costa County,37.7639471,-121.9131761
93261,Tulare County,35.8055077,-119.1128936
91722,Los Angeles County,34.0948204,-117.9073244
92109,San Diego County,32.7920948,-117.2323367
90240,Los Angeles County,33.9574105,-118.1210458
91790,Los Angeles County,34.9648191,-120.4933624
93737,Fresno County,36.7512882,-119.6441212
96022,Tehama County,40.3346427,-122.4798416
95060,Santa Cruz County,37.0105307,-122.1178261
93653,Madera County,37.2270871,-119.9277947
93430,San Luis Obispo County,35.4731575,-120.9187827
94903,Marin County,38.0270044,-122.5485873
95118,Santa Clara County,37.2589827,-121.8847222
94517,Contra Costa County,37.8793779,-121.8790306
93516,Kern County,35.00735270000001,-117.666952
90740,Orange County,33.7535679,-118.0830047
96145,Placer County,39.1384824,-120.1647036
92114,San Diego County,32.7040143,-117.0499859
95476,Sonoma County,38.2315738,-122.4693688
94952,Sonoma County,38.235501,-122.6420207
91304,Los Angeles County,36.7272444,-121.6397184
95630,Sacramento County,38.668585,-121.1481284
91731,Los Angeles County,34.0835771,-118.0361736
93927,Monterey County,36.1828098,-121.3998995
95667,El Dorado County,38.7370339,-120.8498944
95986,Nevada County,39.3534913,-120.7551101
93953,Monterey County,36.5841937,-121.9416226
93424,San Luis Obispo County,35.1815797,-120.7299657
95837,Sutter County,38.6969922,-121.5940773
91739,San Bernardino County,34.1547243,-117.5143603
95692,Yuba County,39.0409308,-121.422761
95720,El Dorado County,38.7828723,-120.2281933
96140,Placer County,39.2245423,-120.0954076
92707,Orange County,33.7126158,-117.8721676
95404,Sonoma County,38.5386881,-122.695547
93308,Kern County,35.5217431,-118.9062794
94510,Solano County,38.1153501,-122.1064668
94939,Marin County,37.938818,-122.5344456
92113,San Diego County,32.6980553,-117.1205925
92591,Riverside County,33.5273381,-117.1147095
93455,Santa Barbara County,34.1873985,-118.3900204
95776,Yolo County,38.6944843,-121.6967438
94306,Santa Clara County,37.4177563,-122.1235054
94947,Marin County,38.12457310000001,-122.6616518
94402,San Mateo County,37.5245965,-122.3390936
90680,Orange County,32.6277588,-116.9499191
95065,Santa Cruz County,37.0353977,-121.9871217
95619,El Dorado County,38.6869632,-120.8096918
93427,Santa Barbara County,34.6195028,-120.2166519
94022,Santa Clara County,37.3694009,-122.1405413
90807,Los Angeles County,33.8332465,-118.1766294
90293,Los Angeles County,33.9508728,-118.4455164
90713,Los Angeles County,33.8477257,-118.1181199
93634,Fresno County,37.2964837,-118.9528645
92131,San Diego County,32.8932137,-117.0676398
95664,El Dorado County,38.809388,-121.0564425
95567,Del Norte County,41.9741584,-124.1576164
94401,San Mateo County,38.6853213,-121.5541264
90602,Los Angeles County,33.9717336,-118.0215363
92841,Orange County,33.7897841,-117.9776173
94946,Marin County,38.0607149,-122.6842498
95315,Merced County,37.4269945,-120.769476
94005,San Mateo County,37.6948419,-122.4070834
92008,San Diego County,39.0715086,-121.6967438
92122,San Diego County,32.8563846,-117.2029363
91759,San Bernardino County,34.2602336,-117.7138785
94708,Alameda County,37.9020612,-122.259717
91803,Los Angeles County,34.0779881,-118.1415261
95046,Santa Clara County,37.0964953,-121.57125
95635,El Dorado County,38.90051,-120.907304
96047,Shasta County,40.4925482,-122.6842859
92655,Orange County,33.746245,-117.9820097
92398,San Bernardino County,34.918849,-116.8733656
91701,San Bernardino County,34.13566730000001,-117.6141457
93675,Fresno County,36.7359348,-119.2088303
90230,Los Angeles County,33.9933257,-118.3987842
95002,Santa Clara County,37.4268706,-121.9721944
92843,Orange County,33.7675239,-117.9424743
95497,Sonoma County,38.68053,-123.42889
93422,San Luis Obispo County,35.4652141,-120.7005044
95969,Butte County,39.7213638,-121.6511258
94134,San Francisco County,37.7202042,-122.4099154
92201,Riverside County,37.9873593,-122.151897
92121,San Diego County,32.8981142,-117.2029363
94502,Alameda County,37.7339032,-122.2483726
93643,Madera County,37.2238226,-119.4411476
95683,Sacramento County,38.4919885,-121.1022942
91103,Los Angeles County,34.1672881,-118.153228
94596,Contra Costa County,37.8824054,-122.026918
91350,Los Angeles County,34.4338228,-118.5155901
93638,Madera County,37.0190777,-120.043412
95007,Santa Cruz County,37.109485,-122.1114366
95954,Butte County,39.8722768,-121.5826642
90710,Los Angeles County,33.7957752,-118.2965121
92704,Orange County,33.7246333,-117.9073244
90035,Los Angeles County,34.050751,-118.3841777
95605,Yolo County,38.5974642,-121.531291
91020,Los Angeles County,34.2115828,-118.2321952
90620,Orange County,33.8428724,-118.0127534
95020,Santa Clara County,37.0127518,-121.5598345
94010,San Mateo County,37.5685247,-122.367428
95423,Lake County,39.0453964,-122.5146439
95928,Butte County,39.703129,-121.8334868
95631,Placer County,39.0793693,-120.7809676
96056,Lassen County,41.1376262,-121.3222078
91384,Los Angeles County,34.5455162,-118.6964752
91733,Los Angeles County,34.0499095,-118.0478826
90272,Los Angeles County,34.0845245,-118.5447787
95120,Santa Clara County,37.1696999,-121.8448745
95050,Santa Clara County,37.3539663,-121.9529992
93932,Monterey County,36.0397645,-121.0105733
94040,Santa Clara County,37.3785351,-122.086585
91303,Los Angeles County,34.1989453,-118.597305
94546,Alameda County,33.7844997,-118.1971031
92804,Orange County,33.82353,-117.9659037
91732,Los Angeles County,34.0791053,-118.0127534
92352,San Bernardino County,34.2693794,-117.2088167
93205,Kern County,35.5489716,-118.451357
92009,San Diego County,33.095442,-117.2499749
92701,Orange County,33.7463915,-117.8604472
95746,Placer County,38.743802,-121.1824925
94301,Santa Clara County,33.9226096,-117.5378439
95030,Santa Clara County,37.22823169999999,-121.9871217
91605,Los Angeles County,34.208195,-118.3987842
91436,Los Angeles County,34.1540054,-118.4922355
94062,San Mateo County,37.41089270000001,-122.2880726
95448,Sonoma County,38.6323169,-122.8761309
92029,San Diego County,33.0852605,-117.1382404
90241,Los Angeles County,33.9372725,-118.1298234
91901,San Diego County,32.83630900000001,-116.7260713
93256,Tulare County,35.9697829,-119.2553229
95076,Santa Cruz County,36.9199564,-121.7423434
93433,San Luis Obispo County,35.1227524,-120.617113
94041,Santa Clara County,37.386812,-122.0751549
95464,Lake County,39.1112521,-122.8253741
95684,El Dorado County,38.576092,-120.5509358
92264,Riverside County,33.7553867,-116.5373923
93309,Kern County,35.3515611,-119.0576298
90504,Los Angeles County,33.8673266,-118.3286614
95116,Santa Clara County,37.3558627,-121.8505679
92882,Riverside County,33.84374830000001,-117.6082774
93621,Fresno County,36.8003047,-119.1158017
94954,Sonoma County,38.2473117,-122.5712101
95125,Santa Clara County,37.2909813,-121.8904136
91607,Los Angeles County,34.167305,-118.3987842
94015,San Mateo County,37.68000019999999,-122.4863492
93287,Kern County,35.7326799,-118.7897558
91325,Los Angeles County,34.2400436,-118.5155901
93923,Monterey County,36.4656419,-121.8334868
90717,Los Angeles County,33.7950887,-118.319894
92028,San Diego County,33.3826505,-117.2440957
92054,San Diego County,33.1924489,-117.3675233
92060,San Diego County,33.353962,-116.8792553
92592,Riverside County,33.43806010000001,-117.0087877
91207,Los Angeles County,34.1893001,-118.2702036
92562,Riverside County,33.5262326,-117.3381427
91702,Los Angeles County,34.2667473,-117.8545867
95682,El Dorado County,38.6084554,-120.9646866
90034,Los Angeles County,34.0324632,-118.395863
94571,Solano County,38.1494225,-121.7423434
95117,Santa Clara County,37.3120731,-121.9643745
95446,Sonoma County,38.5274588,-123.000095
92315,San Bernardino County,34.2428813,-116.9087014
94531,Contra Costa County,37.9644542,-121.7708337
92585,Riverside County,33.7441155,-117.1617685
94588,Alameda County,37.6873908,-121.9131761
92129,San Diego County,32.9657005,-117.1147095
95973,Butte County,39.8633343,-121.856261
93637,Madera County,36.9152938,-120.2051096
95035,Santa Clara County,37.4323716,-121.8993526
92373,San Bernardino County,34.0127473,-117.1617685
95701,Placer County,39.2176947,-120.792458
94521,Contra Costa County,37.9538109,-121.9643745
92069,San Diego County,33.1630271,-117.1617685
93030,Ventura County,34.2054029,-119.1681373
95901,Yuba County,39.2392323,-121.5141615
94014,San Mateo County,37.6904558,-122.4523855
95436,Sonoma County,38.4924543,-122.9324972
95441,Sonoma County,38.7109062,-123.1014056
95661,Placer County,38.7424319,-121.2511908
92107,San Diego County,32.7409782,-117.2499749
91104,Los Angeles County,34.1657707,-118.1181199
91786,San Bernardino County,34.1036996,-117.6610854
91206,Los Angeles County,34.1527251,-118.2117257
90605,Los Angeles County,33.9548846,-118.0273914
94550,Alameda County,37.6536947,-121.6739371
94951,Sonoma County,38.3236587,-122.6447001
94970,Marin County,37.9105306,-122.6333973
92014,San Diego County,32.9864215,-117.226457
90064,Los Angeles County,34.0386656,-118.4221519
92262,Riverside County,33.8613433,-116.5727815
94132,San Francisco County,37.7181398,-122.4863492
93631,Fresno County,36.4903097,-119.5339711
91203,Los Angeles County,34.1531191,-118.2614332
90701,Los Angeles County,33.8648303,-118.0800782
94043,Santa Clara County,37.4062237,-122.0781663
90804,Los Angeles County,33.7806646,-118.1503026
95672,El Dorado County,38.7218957,-120.9991032
95458,Lake County,39.1039647,-122.7745919
94303,Santa Clara County,34.5869607,-117.1264753
91321,Los Angeles County,34.3677169,-118.4747173
91214,Los Angeles County,34.2389818,-118.2351192
94901,Marin County,37.9650627,-122.503327
94063,San Mateo County,37.5021585,-122.2086579
93221,Tulare County,36.3101417,-119.0227159
92119,San Diego County,32.8112871,-117.0382158
92532,Riverside County,33.663476,-117.2617329
94538,Alameda County,37.5042267,-121.9643745
95722,Placer County,38.9993271,-121.0220422
93306,Kern County,35.4516124,-118.7897558
95369,Merced County,37.5385285,-120.4127161
94503,Napa County,38.1876611,-122.2427
90004,Los Angeles County,34.0748887,-118.3082034
95124,Santa Clara County,37.2583724,-121.918866
93543,Los Angeles County,34.4965114,-117.9600466
96161,Nevada County,39.3021948,-120.2051096
94065,San Mateo County,37.5331558,-122.2483726
92064,San Diego County,32.9799762,-117.0087877
95123,Santa Clara County,37.2374847,-121.8277925
95122,Santa Clara County,37.3304014,-121.8391808
91010,Los Angeles County,34.1579788,-117.9424743
93445,San Luis Obispo County,35.0729544,-120.6257423
91504,Los Angeles County,34.2053511,-118.3286614
92563,Riverside County,33.5784347,-117.1617685
92225,Riverside County,33.7310815,-114.6667939
92081,San Diego County,33.1778834,-117.2534184
95614,El Dorado County,38.8925457,-120.9991032
93644,Madera County,37.3686993,-119.6267347
96150,El Dorado County,38.8864448,-119.9971769
95453,Lake County,39.0784484,-122.9437667
95945,Nevada County,39.1766853,-120.9646866
95062,Santa Cruz County,36.9677899,-121.9871217
90601,Los Angeles County,34.0080684,-118.0303189
90242,Los Angeles County,33.9167378,-118.1298234
94112,San Francisco County,37.72254909999999,-122.4410618
93660,Fresno County,36.58829490000001,-120.182022
90604,Los Angeles County,33.9324943,-118.0244639
95570,Humboldt County,41.1509241,-124.1048271
92082,San Diego County,33.2300939,-117.0087877
95138,Santa Clara County,37.2422863,-121.7309452
93544,Los Angeles County,34.494562,-117.7607932
91710,San Bernardino County,34.0120229,-117.6786847
90640,Los Angeles County,34.0149091,-118.1064156
95713,Placer County,37.71693270000001,-121.0851019
94928,Sonoma County,38.3437823,-122.7011951
90036,Los Angeles County,34.0664817,-118.3520389
95949,Nevada County,39.1105188,-121.1252135
94512,Solano County,38.1349416,-121.822098
91411,Los Angeles County,34.1799855,-118.4601175
92234,Riverside County,33.82632359999999,-116.4547962
92301,San Bernardino County,34.6599838,-117.5026174
90008,Los Angeles County,34.0083231,-118.3491169
92010,San Diego County,33.159946,-117.2852467
95547,Humboldt County,40.5659648,-124.0817118
95602,Placer County,38.9851375,-121.1022942
92059,San Diego County,33.3930888,-117.0676398
92020,San Diego County,32.79632220000001,-116.9675814
93250,Kern County,35.6626535,-119.2088303
95651,El Dorado County,38.8210287,-120.9359987
91202,Los Angeles County,34.1688371,-118.2702036
92251,Imperial County,32.8491869,-115.7338502
92385,San Bernardino County,34.2353739,-117.1794216
95403,Sonoma County,38.4739555,-122.7520139
91706,Los Angeles County,34.0812006,-117.9834738
95472,Sonoma County,38.4067427,-122.8761309
91501,Los Angeles County,34.2039087,-118.2935891
93608,Fresno County,36.4974358,-120.3666099
92126,San Diego County,32.9184763,-117.1382404
93611,Fresno County,36.8303133,-119.6788877
90742,Orange County,33.7178819,-118.0704585
91204,Los Angeles County,34.1377656,-118.2614332
91208,Los Angeles County,36.7057988,-120.112735
95603,Placer County,38.9101752,-121.067907
91746,Los Angeles County,34.0541034,-117.9893301
93654,Fresno County,36.64647,-119.3947135
91306,Los Angeles County,34.2048586,-118.5739621
91505,Los Angeles County,34.1615135,-118.3403506
90248,Los Angeles County,33.8658064,-118.2935891
94931,Sonoma County,38.3272883,-122.7237843
92026,San Diego County,33.2156978,-117.1147095
94028,San Mateo County,37.3871184,-122.2086579
95121,Santa Clara County,37.302108,-121.8050125
95628,Sacramento County,38.6506766,-121.2569138
92879,Riverside County,33.8813831,-117.5378439
92317,San Bernardino County,34.2383916,-117.2181252
92860,Riverside County,33.9226096,-117.5378439
92587,Riverside County,33.7010881,-117.255854
90670,Los Angeles County,33.9414796,-118.0712981
92561,Riverside County,33.630717,-116.5373923
94513,Contra Costa County,37.9341399,-121.6967438
94124,San Francisco County,37.7304167,-122.384425
92057,San Diego County,33.260081,-117.2793685
93402,San Luis Obispo County,35.2873476,-120.8384093
91730,San Bernardino County,34.0965313,-117.5848025
91387,Los Angeles County,34.41305699999999,-118.4163103
95336,San Joaquin County,37.8403398,-121.2053963
95401,Sonoma County,38.4409697,-122.7971649
90606,Los Angeles County,33.9722831,-118.0712981
92123,San Diego County,32.8102534,-117.1323579
92596,Riverside County,33.6345169,-117.0558707
92703,Orange County,33.7526686,-117.9190418
91744,Los Angeles County,34.0274622,-117.9307584
92025,San Diego County,33.090285,-117.0499859
94574,Napa County,38.5241378,-122.3787597
93614,Madera County,37.2000816,-119.742604
92508,Riverside County,33.890925,-117.3263893
92342,San Bernardino County,34.7612737,-117.3381427
90660,Los Angeles County,33.9870228,-118.0947106
92314,San Bernardino County,34.2296046,-116.8556955
94061,San Mateo County,37.4634447,-122.2256803
90650,Los Angeles County,33.90777509999999,-118.0830047
91351,Los Angeles County,34.4384112,-118.4571974
95112,Santa Clara County,37.3456227,-121.8847222
92024,San Diego County,33.052083,-117.2793685
95126,Santa Clara County,37.3290122,-121.9160211
95113,Santa Clara County,37.3326639,-121.8918364
94534,Solano County,38.2672631,-122.1064668
95935,Yuba County,39.3664259,-121.1824925
93210,Fresno County,36.2615718,-120.4357631
95728,Placer County,39.309122,-120.3954282
91941,San Diego County,32.7699547,-116.9911288
94403,San Mateo County,37.7199247,-122.1689284
95742,Sacramento County,38.5791051,-121.193945
93244,Tulare County,36.46896,-119.0227159
95678,Placer County,38.7637052,-121.2912463
94066,San Mateo County,37.6210696,-122.4297369
94116,San Francisco County,37.7432421,-122.497668
95485,Lake County,34.3350492,-116.5373923
93666,Tulare County,36.5450389,-119.3391908
91766,Los Angeles County,34.0397162,-117.7549295
90715,Los Angeles County,33.8413324,-118.0783974
95388,Merced County,37.4216867,-120.5509358
95439,Sonoma County,38.4886363,-122.7802357
92120,San Diego County,32.7926264,-117.0735241
95677,Placer County,38.7870973,-121.2282958
93266,Kings County,36.1646087,-119.8583772
91201,Los Angeles County,34.1629905,-118.2935891
93706,Fresno County,36.67839379999999,-119.9277947
93630,Fresno County,36.7057988,-120.112735
95242,San Joaquin County,38.1304288,-121.422761
92065,San Diego County,33.0654286,-116.8203511
90706,Los Angeles County,33.8822393,-118.1239717
92308,San Bernardino County,34.3965399,-117.1500048
95695,Yolo County,38.6651725,-121.856261
94080,San Mateo County,37.6531903,-122.4184108
93561,Kern County,35.0776145,-118.4396756
91915,San Diego County,32.6277588,-116.9499191
93454,Santa Barbara County,38.6830879,-121.3713164
90045,Los Angeles County,33.9516114,-118.3875775
92075,San Diego County,32.9956666,-117.2646723
92019,San Diego County,32.7751095,-116.8556955
92358,San Bernardino County,34.2238173,-117.5261025
94536,Alameda County,37.5641425,-122.004179
92341,San Bernardino County,34.2412908,-117.0676398
93933,Monterey County,36.680194,-121.7822278
92111,San Diego County,33.6392361,-117.3851496
93641,Fresno County,36.706587,-119.0227159
92397,San Bernardino County,34.3668408,-117.6552185
96127,Lassen County,40.42,-120.65
93268,Kern County,35.14243039999999,-119.4565338
94706,Alameda County,37.8883952,-122.2965778
92378,San Bernardino County,34.2319627,-117.214697
91506,Los Angeles County,34.1728461,-118.325739
95757,Sacramento County,38.3591901,-121.422761
93277,Tulare County,36.3033521,-119.3831026
92056,San Diego County,33.192168,-117.3028803
92590,Riverside County,33.4767802,-117.1970557
91767,Los Angeles County,34.0836851,-117.7432015
91931,San Diego County,32.8189976,-116.5727815
93204,Kings County,35.9822676,-120.0896313
95916,Butte County,39.6685037,-121.3312882
90502,Los Angeles County,33.8331717,-118.2906661
92322,San Bernardino County,34.2500685,-117.3257366
92084,San Diego County,33.2143717,-117.2088167
90806,Los Angeles County,33.8065036,-118.1912538
93305,Kern County,35.3964972,-118.9819731
95334,Merced County,37.2914925,-120.734995
95425,Sonoma County,38.8143447,-123.0113568
95004,Monterey County,36.8825441,-121.6397184
92354,San Bernardino County,34.0484387,-117.2499749
92117,San Diego County,32.8250767,-117.2029363
92027,San Diego County,33.1467885,-117.0087877
90745,Los Angeles County,33.8232001,-118.2585096
91761,San Bernardino County,34.0348144,-117.5848025
95972,Butte County,39.4538587,-121.3141291
95842,Sacramento County,38.6804131,-121.3484448
93622,Fresno County,36.8114708,-120.5739579
95039,Monterey County,36.8225884,-121.7765309
94710,Alameda County,37.8645848,-122.2965778
92346,San Bernardino County,34.1286356,-117.2089374
90247,Los Angeles County,33.8863314,-118.2935891
92236,Riverside County,33.6885095,-116.1477598
95018,Santa Cruz County,37.0435289,-122.0723816
90040,Los Angeles County,33.9930471,-118.153228
95134,Santa Clara County,34.0795169,-118.1766294
90022,Los Angeles County,34.0238187,-118.153228
94551,Alameda County,33.9198647,-118.2000277
92115,San Diego County,32.7612759,-117.0735241
94122,San Francisco County,37.7597481,-122.4750292
91942,San Diego County,32.7749487,-117.0146736
95724,Placer County,39.3138084,-120.3421093
91001,Los Angeles County,34.2103962,-118.1239717
92021,San Diego County,32.8324351,-116.8792553
95993,Sutter County,39.0715086,-121.6967438
93618,Tulare County,36.5279315,-119.3947135
94937,Marin County,38.1284731,-122.9212265
93721,Fresno County,36.7337663,-119.7845829
93518,Kern County,35.4008617,-118.4396756
95468,Mendocino County,38.9025795,-123.5504076
93292,Tulare County,36.3276805,-119.2553229
95703,Placer County,38.993576,-120.9933678
95938,Butte County,39.6053211,-121.7879244
90023,Los Angeles County,34.0224471,-118.2000277
93652,Fresno County,36.5897007,-119.9104436
92506,Riverside County,33.9415653,-117.3733989
93669,Madera County,37.2703531,-119.5397706
92399,San Bernardino County,34.0593543,-117.0087877
95469,Mendocino County,39.4213799,-123.0338767
95140,Santa Clara County,37.385095,-121.6397184
93291,Tulare County,36.3696012,-119.3947135
95391,San Joaquin County,37.7582199,-121.548418
93625,Fresno County,36.6234291,-119.6615055
90057,Los Angeles County,34.06170609999999,-118.2789735
90065,Los Angeles County,34.10885,-118.2234229
92595,Riverside County,33.61829210000001,-117.255854
95835,Sacramento County,38.6853213,-121.5541264
95377,San Joaquin County,37.6571548,-121.4684703
93553,Los Angeles County,34.3780816,-117.9014654
93230,Kings County,36.2808234,-119.6499162
95632,Sacramento County,38.2855625,-121.2855249
95941,Butte County,39.5147718,-121.2511908
92040,San Diego County,32.8765334,-116.9145901
95688,Solano County,38.4087013,-122.0155491
94561,Contra Costa County,38.0044162,-121.685341
90810,Los Angeles County,33.8113701,-118.2234229
95037,Santa Clara County,37.2187714,-121.5826642
90212,Los Angeles County,34.0617109,-118.4017053
95407,Sonoma County,38.3986068,-122.7520139
90280,Los Angeles County,33.9432948,-118.188329
95130,Santa Clara County,37.2876164,-121.9857002
94089,Santa Clara County,39.5137274,-121.5568104
90250,Los Angeles County,33.9127807,-118.3520389
92336,San Bernardino County,34.145515,-117.4673845
95361,Stanislaus County,37.8189573,-120.8498944
95133,Santa Clara County,37.3716914,-121.8619539
92058,San Diego County,33.2773221,-117.3381427
95333,Merced County,37.2407962,-120.2281933
92651,Orange County,33.5563145,-117.77252
92223,Riverside County,33.9334088,-116.9734685
96001,Shasta County,40.5441948,-122.4617007
92313,San Bernardino County,34.03437750000001,-117.3087578
95136,Santa Clara County,37.2692142,-121.8505679
90746,Los Angeles County,33.8540061,-118.2585096
93921,Monterey County,36.5569,-121.92269
95625,Solano County,38.3455976,-121.905352
90039,Los Angeles County,34.1103407,-118.2585096
95424,Lake County,38.96787630000001,-122.6612483
92116,San Diego County,37.8104485,-122.2398636
93704,Fresno County,36.7757374,-119.8062912
91902,San Diego County,32.6703579,-117.0146736
90249,Los Angeles County,33.901022,-118.3169714
93726,Fresno County,36.7949518,-119.7541856
90805,Los Angeles County,33.8640647,-118.1766294
93612,Fresno County,36.8109736,-119.7136456
91345,Los Angeles County,34.264995,-118.4571974
93227,Tulare County,36.3435879,-119.4211606
93501,Kern County,35.04403,-118.2526623
90066,Los Angeles County,34.0050173,-118.4338345
92104,San Diego County,32.7398671,-117.1205925
91977,San Diego County,32.7215291,-116.9970153
93274,Tulare County,36.1973331,-119.3714909
93458,Santa Barbara County,34.9648191,-120.4933624
93603,Tulare County,36.6002176,-118.9761519
91343,Los Angeles County,34.2386799,-118.4805569
95977,Nevada County,39.1571906,-121.2855249
91978,San Diego County,32.7258378,-116.9558067
95991,Sutter County,39.01094,-121.6169002
94501,Alameda County,37.7712165,-122.2824021
95965,Butte County,39.5137274,-121.5568104
93673,Fresno County,36.4536184,-119.4857538
95864,Sacramento County,38.5848773,-121.3827505
94957,Marin County,37.9633054,-122.5627272
91768,Los Angeles County,34.0648167,-117.7783831
92071,San Diego County,32.8678728,-116.9970153
92274,Imperial County,33.5658807,-116.1832068
91950,San Diego County,34.594158,-118.1824793
92536,Riverside County,33.4820617,-116.8203511
95326,Stanislaus County,37.5939016,-120.8613785
90245,Los Angeles County,33.9150066,-118.4046264
94611,Alameda County,37.8336281,-122.2029832
93532,Los Angeles County,34.676617,-118.4531942
95659,Sutter County,38.83528889999999,-121.6054893
94514,Contra Costa County,37.8076915,-121.6397184
95825,Sacramento County,38.5890819,-121.4084731
93257,Tulare County,36.0651915,-119.0167603
93436,Santa Barbara County,34.6425797,-120.3896651
92408,San Bernardino County,34.0868517,-117.2617329
95831,Sacramento County,38.4901072,-121.5255815
94608,Alameda County,37.837959,-122.2824021
90716,Los Angeles County,33.83029800000001,-118.0742249
95382,Stanislaus County,37.5359468,-120.8613785
94515,Napa County,38.6045556,-122.6051351
92083,San Diego County,33.2013734,-117.2529145
95830,Sacramento County,38.4858337,-121.2683591
90744,Los Angeles County,33.7857948,-118.2643567
93304,Kern County,35.344108,-119.0285355
91762,San Bernardino County,34.0420153,-117.6610854
95620,Solano County,38.3897438,-121.7651362
91913,San Diego County,32.6168755,-116.9970153
95465,Sonoma County,38.3958794,-123.000095
90038,Los Angeles County,40.5229147,-122.3221947
94587,Alameda County,37.5952304,-122.043969
95974,Butte County,39.4915471,-121.748042
95714,Placer County,37.42054,-120.6663638
91606,Los Angeles County,34.1873985,-118.3900204
91040,Los Angeles County,34.2864053,-118.3111262
94609,Alameda County,37.8321173,-122.2625529
91752,Riverside County,34.0050096,-117.5378439
95610,Sacramento County,38.6977447,-121.2740813
93636,Madera County,36.992005,-119.8583772
95624,Sacramento County,38.4244019,-121.3312882
96003,Shasta County,40.8002021,-122.1792927
93280,Kern County,35.6146443,-119.464359
93263,Kern County,35.4901444,-119.2553229
95687,Solano County,34.7190908,-118.2526623
95829,Sacramento County,38.4943521,-121.3198491
94709,Alameda County,37.8796524,-122.2668066
91205,Los Angeles County,34.1337367,-118.2468148
96096,Shasta County,40.661649,-121.8443352
95422,Lake County,38.9713832,-122.6616518
93722,Fresno County,36.8353312,-119.8930904
95452,Sonoma County,38.4213907,-122.5429309
93301,Kern County,35.3873576,-119.0168962
91342,Los Angeles County,34.3023759,-118.3695699
93662,Fresno County,36.5441315,-119.6267347
95148,Santa Clara County,37.3315827,-121.7708337
93286,Tulare County,36.4442293,-119.1158017
95119,Santa Clara County,37.2318159,-121.7822278
95219,San Joaquin County,38.0268596,-121.5141615
95691,Yolo County,38.5815697,-121.5312934
95655,Sacramento County,38.548973,-121.2798033
93222,Kern County,34.8611703,-119.179765
92382,San Bernardino County,34.2244855,-117.1382404
95758,Sacramento County,38.4223702,-121.43419
92505,Riverside County,33.913326,-117.4908738
90723,Los Angeles County,33.89777370000001,-118.1649291
93234,Fresno County,36.1869027,-120.1011836
92325,San Bernardino County,34.2524771,-117.2793685
90270,Los Angeles County,33.9876248,-118.1854042
93245,Kings County,36.2960087,-119.8120795
91945,San Diego County,32.7381191,-117.0382158
90201,Los Angeles County,33.96672119999999,-118.1766294
91910,San Diego County,32.6385134,-117.0617553
91402,Los Angeles County,34.2252697,-118.442596
95962,Yuba County,39.3579705,-121.2740813
95341,Merced County,37.2276426,-120.4818446
95240,San Joaquin County,38.1484821,-121.1022942
92320,Riverside County,33.9900379,-117.0617553
94607,Alameda County,37.8134679,-122.307917
93212,Kings County,36.0980204,-119.5603945
90262,Los Angeles County,33.9198647,-118.2000277
95650,Placer County,38.8074133,-121.1595842
91916,San Diego County,32.8997738,-116.6317514
93728,Fresno County,36.7545601,-119.8207615
94950,Marin County,38.0537449,-122.8013968
92321,San Bernardino County,34.2563043,-117.1558867
91764,San Bernardino County,34.0739866,-117.6141457
90068,Los Angeles County,34.1235157,-118.3286614
90041,Los Angeles County,34.13224690000001,-118.2117257
95237,San Joaquin County,38.160627,-121.1424001
94577,Alameda County,37.7199247,-122.1689284
95608,Sacramento County,38.6272793,-121.3198491
92404,San Bernardino County,34.1585191,-117.2554498
92391,San Bernardino County,34.2398999,-117.2352765
90211,Los Angeles County,34.0661071,-118.3841777
95834,Sacramento County,38.6418022,-121.5255815
93247,Tulare County,36.2059467,-119.1158017
93925,Monterey County,36.5999881,-121.3770336
94544,Alameda County,37.6270256,-122.0496521
93519,Kern County,35.3028869,-117.9483319
92337,San Bernardino County,34.0482749,-117.4438924
92504,Riverside County,33.736074,-117.0205594
92503,Riverside County,33.8833867,-117.4438924
95662,Sacramento County,38.692341,-121.2282958
92377,San Bernardino County,34.1559542,-117.4027743
94619,Alameda County,37.7936811,-122.1462193
95304,San Joaquin County,37.6841772,-121.3770336
91042,Los Angeles County,34.296676,-118.2292712
94086,Santa Clara County,37.371859,-122.0212337
90255,Los Angeles County,33.9756107,-118.2234229
91030,Los Angeles County,34.1058277,-118.153228
90032,Los Angeles County,34.0795169,-118.1766294
93203,Kern County,35.0626492,-118.8130675
92374,San Bernardino County,34.0708773,-117.1558867
92557,Riverside County,33.9696912,-117.255854
94612,Alameda County,37.8113159,-122.2682245
93307,Kern County,35.2421103,-118.9761519
93225,Kern County,34.8177796,-119.0027936
92545,Riverside County,33.736074,-117.0205594
92507,Riverside County,33.9734553,-117.3263893
91352,Los Angeles County,34.23015670000001,-118.3520389
94580,Alameda County,37.6729393,-122.1348629
94805,Contra Costa County,37.9383242,-122.3277578
95356,Stanislaus County,37.7208684,-121.0220422
94565,Contra Costa County,38.0182853,-121.9245556
96016,Shasta County,40.9403692,-121.572033
93551,Los Angeles County,34.594158,-118.1824793
93242,Fresno County,36.4272476,-119.7657663
90061,Los Angeles County,33.9196443,-118.2731269
93647,Tulare County,36.5902725,-119.1623231
95348,Merced County,37.4283693,-120.4933624
95843,Sacramento County,38.7149071,-121.3598812
95663,Placer County,38.8544033,-121.1767658
94585,Solano County,38.1705985,-121.9245556
93705,Fresno County,36.789028,-119.829443
95670,Sacramento County,38.5961116,-121.2969674
91331,Los Angeles County,34.2570374,-118.4279933
95417,Mendocino County,39.6867934,-123.6399562
90042,Los Angeles County,34.1175895,-118.188329
95019,Santa Cruz County,36.9355718,-121.7793794
93604,Madera County,37.4067748,-119.4875668
94553,Contra Costa County,37.9873593,-122.151897
95340,Merced County,37.3444493,-120.4127161
92220,Riverside County,33.9273122,-116.8674757
95337,San Joaquin County,37.7630254,-121.2397438
90059,Los Angeles County,33.9287591,-118.2468148
94541,Alameda County,37.6737239,-122.1007867
94085,Santa Clara County,37.3895297,-122.0183914
94610,Alameda County,37.8104485,-122.2398636
95355,Stanislaus County,37.6704504,-120.9302603
93656,Fresno County,36.4553949,-119.950926
90029,Los Angeles County,34.0880507,-118.2965121
93283,Kern County,35.6239573,-118.2760503
94578,Alameda County,37.7050703,-122.1235054
95357,Stanislaus County,37.6644618,-120.8843434
96002,Shasta County,40.5229147,-122.3221947
95841,Sacramento County,38.6614578,-121.3484448
93605,Fresno County,37.1890642,-119.2437011
95376,San Joaquin County,37.7345254,-121.43419
95350,Stanislaus County,37.6697463,-120.9991032
92501,Riverside County,33.999677,-117.3675233
93650,Fresno County,36.8420172,-119.8019498
95641,Sacramento County,38.1659627,-121.5598345
95621,Sacramento County,38.6940006,-121.3026883
95430,Sonoma County,38.4373944,-123.0620193
90402,Los Angeles County,34.0352816,-118.5068325
92276,Riverside County,33.8326524,-116.3367515
93616,Fresno County,36.642368,-119.5919555
95316,Stanislaus County,37.5371999,-120.6890055
90056,Los Angeles County,33.9885683,-118.3666482
90007,Los Angeles County,34.0295114,-118.2848199
95231,San Joaquin County,37.8774675,-121.2912463
93215,Kern County,35.7949326,-119.1623231
95212,San Joaquin County,38.0445015,-121.2282958
94530,Contra Costa County,37.9202057,-122.2937428
94579,Alameda County,37.6851553,-122.1575745
90031,Los Angeles County,34.081032,-118.2117257
96088,Shasta County,40.5328759,-121.8412133
95615,Sacramento County,38.331258,-121.548418
92243,Imperial County,32.7538822,-115.5917918
90813,Los Angeles County,33.7844997,-118.1971031
94547,Contra Costa County,38.00674,-122.259717
90221,Los Angeles County,33.8890686,-118.2000277
96007,Shasta County,40.4526321,-122.28015
92661,Orange County,33.602788,-117.9102538
95312,Merced County,37.42054,-120.6663638
95966,Butte County,39.4915751,-121.422761
93610,Madera County,37.1108483,-120.2743484
92258,Riverside County,33.923751,-116.5410789
95826,Sacramento County,38.5499634,-121.3884671
93725,Fresno County,36.6765725,-119.7194377
92359,San Bernardino County,34.097004,-117.0676398
95139,Santa Clara County,37.2257107,-121.7622874
93536,Los Angeles County,34.7190908,-118.2526623
93267,Tulare County,36.1332276,-119.1274334
92154,San Diego County,32.5967198,-116.9028125
90002,Los Angeles County,33.9511133,-118.2497386
95821,Sacramento County,38.6258567,-121.3884671
93703,Fresno County,36.7687871,-119.7599761
95111,Santa Clara County,37.28566319999999,-121.8277925
95368,Stanislaus County,37.71693270000001,-121.0851019
95435,Lake County,39.0037467,-122.8750737
92509,Riverside County,33.9996052,-117.4321452
90210,Los Angeles County,34.0683231,-118.4069666
93223,Tulare County,36.3036623,-119.205924
93906,Monterey County,36.7272444,-121.6397184
92582,Riverside County,33.7981884,-117.0205594
92277,San Bernardino County,34.1356099,-116.0542941
95227,San Joaquin County,38.2148814,-121.0306432
91911,San Diego County,32.6059744,-117.0441009
93270,Tulare County,35.93935829999999,-119.0692659
95320,San Joaquin County,37.8300406,-121.0105733
92570,Riverside County,33.7857455,-117.2911248
92530,Riverside County,33.6392361,-117.3851496
92553,Riverside County,33.924658,-117.2499749
95236,San Joaquin County,38.0728788,-121.03351
92344,San Bernardino County,34.3811299,-117.3851496
94592,Solano County,38.088795,-122.2710602
92105,San Diego County,32.7348953,-117.0970596
93527,Kern County,36.1155819,-118.1590786
93930,Monterey County,36.2143294,-121.1237187
90033,Los Angeles County,34.0502898,-118.2117257
92386,San Bernardino County,34.2426357,-116.827715
93235,Tulare County,36.3899871,-119.2262667
93606,Fresno County,36.8021801,-120.016323
94564,Contra Costa County,37.9963136,-122.2937428
92363,San Bernardino County,34.7275112,-114.5955356
95365,Merced County,37.3056776,-120.3349024
95690,Sacramento County,38.2285458,-121.6054893
90058,Los Angeles County,34.00637469999999,-118.2234229
92173,San Diego County,32.5497444,-117.0382158
90222,Los Angeles County,33.9111458,-118.2351192
94602,Alameda County,37.8015517,-122.2143323
94702,Alameda County,37.8680576,-122.2852374
95658,Placer County,38.8831341,-121.1595842
92544,Riverside County,33.6634859,-116.8439147
95833,Sacramento County,38.6198298,-121.5198716
92567,Riverside County,33.8173261,-117.1147095
90037,Los Angeles County,38.5128714,-121.4970294
95822,Sacramento County,38.5128714,-121.4970294
95818,Sacramento County,38.56030560000001,-121.4970294
92372,San Bernardino County,34.4340464,-117.6317494
92316,San Bernardino County,34.0595859,-117.3968996
93635,Merced County,37.0583373,-120.8499249
94545,Alameda County,37.6063621,-122.1178261
92102,San Diego County,32.7162223,-117.1323579
94703,Alameda County,37.85247409999999,-122.2738958
92318,San Bernardino County,34.0472706,-117.2386415
92067,San Diego County,33.0176773,-117.226457
93243,Kern County,34.7936796,-118.8363756
94803,Contra Costa County,37.9587253,-122.2767313
92307,San Bernardino County,34.5869607,-117.1264753
92139,San Diego County,32.6858257,-117.0382158
93434,Santa Barbara County,34.9529067,-120.6084832
95626,Sacramento County,38.7190893,-121.4570447
95638,Sacramento County,38.3395289,-121.1022942
92376,San Bernardino County,34.1063841,-117.3703189
94024,Santa Clara County,37.3478257,-122.1007867
90304,Los Angeles County,33.9387862,-118.3608046
92335,San Bernardino County,34.08378700000001,-117.4673845
92311,San Bernardino County,34.9744981,-116.9616941
94940,Marin County,38.1745272,-122.8648538
95363,Stanislaus County,37.481683,-121.1481284
92571,Riverside County,33.81567709999999,-117.2088167
95442,Sonoma County,38.3747503,-122.5259596
95202,San Joaquin County,37.9573836,-121.2883857
94605,Alameda County,37.7554905,-122.1462193
93241,Kern County,35.2638398,-118.9121033
90063,Los Angeles County,34.0440239,-118.1854042
92551,Riverside County,33.878638,-117.226457
92371,San Bernardino County,34.4290417,-117.5261025
95693,Sacramento County,38.3888359,-121.193945
95367,Stanislaus County,37.7280941,-120.9474747
92625,Orange County,33.599184,-117.8721676
96008,Shasta County,40.7159408,-122.1203009
95681,Placer County,38.9988271,-121.3427262
96111,Nevada County,39.4805159,-120.043412
93202,Kings County,36.3104492,-119.7093013
95958,Butte County,39.5515199,-121.76477
93648,Fresno County,36.6218128,-119.5223715
95380,Stanislaus County,37.47103329999999,-120.9187827
94518,Contra Costa County,37.9461207,-122.0212337
95324,Merced County,37.4069089,-120.8728615
96071,Shasta County,40.664978,-121.4683317
95387,Stanislaus County,37.5051827,-121.3312882
90027,Los Angeles County,34.1220545,-118.2935891
95230,San Joaquin County,37.9728082,-120.8498944
95330,San Joaquin County,37.8134216,-121.2969674
96028,Shasta County,41.0063661,-121.4469102
92549,Riverside County,33.7608141,-116.7378585
92583,Riverside County,33.814818,-116.9499191
92240,Riverside County,33.9628146,-116.5373923
92284,San Bernardino County,34.1502862,-116.4429944
94606,Alameda County,37.7944092,-122.2455364
94533,Solano County,38.2493627,-122.0399969
90220,Los Angeles County,33.8803536,-118.2351192
95322,Merced County,37.2248548,-121.03351
95975,Nevada County,39.2228146,-121.1595842
95948,Butte County,39.35777,-121.7423434
90077,Los Angeles County,34.1014861,-118.4571974
96062,Shasta County,40.5643302,-122.0397737
94591,Solano County,38.1256242,-122.1973081
90062,Los Angeles County,34.0031792,-118.3082034
90003,Los Angeles County,33.9657994,-118.2731269
95828,Sacramento County,38.4929881,-121.3884671
93218,Tulare County,35.8587055,-119.0343548
95827,Sacramento County,38.5544039,-121.3255688
91011,Los Angeles County,34.2133926,-118.1941785
92407,San Bernardino County,34.216765,-117.3851496
90001,Los Angeles County,33.9697897,-118.2468148
92268,San Bernardino County,34.241485,-116.5845767
94705,Alameda County,37.8646149,-122.2341905
92392,San Bernardino County,34.4854334,-117.4203974
92395,San Bernardino County,34.4933111,-117.3028803
92249,Imperial County,32.7283132,-115.491124
91932,San Diego County,32.5829894,-117.1205925
90302,Los Angeles County,33.9742906,-118.3520389
94027,San Mateo County,37.45117949999999,-122.2029832
90011,Los Angeles County,34.007889,-118.2585096
95307,Stanislaus County,37.5350396,-120.9646866
96084,Shasta County,40.9048101,-122.0229676
90044,Los Angeles County,33.9478802,-118.2935891
95660,Sacramento County,38.6830879,-121.3713164
92256,San Bernardino County,34.0761084,-116.5845767
95301,Merced County,37.3178131,-120.6429991
93272,Tulare County,36.0519936,-119.3947135
95673,Sacramento County,38.6880414,-121.43419
90047,Los Angeles County,33.9519253,-118.3082034
95209,San Joaquin County,38.0521138,-121.3484448
92543,Riverside County,33.6991526,-116.9793554
95354,Stanislaus County,37.6346973,-120.9704234
90303,Los Angeles County,33.93583520000001,-118.3315838
95204,San Joaquin County,37.9727529,-121.3255688
95823,Sacramento County,38.4603864,-121.43419
92345,San Bernardino County,34.3627106,-117.2911248
90018,Los Angeles County,34.0309972,-118.319894
92394,San Bernardino County,34.5639731,-117.3498955
96019,Shasta County,40.69150459999999,-122.3779053
93615,Tulare County,36.5065822,-119.2901829
96073,Shasta County,40.5993942,-122.1960119
95220,San Joaquin County,38.1845539,-121.2397438
95819,Sacramento County,38.5678631,-121.4399041
95832,Sacramento County,38.4369084,-121.4970294
94806,Contra Costa County,37.9759027,-122.3447611
92324,San Bernardino County,34.0559145,-117.3263893
95385,Stanislaus County,37.596139,-121.2511908
94523,Contra Costa County,37.9448915,-122.0723816
90265,Los Angeles County,34.0615492,-118.8363756
92233,Imperial County,33.1904717,-115.6154732
92410,San Bernardino County,34.0961955,-117.3087578
95917,Butte County,39.4384517,-121.7537404
92118,San Diego County,32.6920499,-117.1911749
95815,Sacramento County,38.5963157,-121.4399041
95639,Yolo County,38.3749489,-121.5055958
95386,Stanislaus County,37.7050159,-120.6429991
93560,Kern County,34.8843005,-118.3228165
90019,Los Angeles County,34.0489277,-118.3403506
93905,Monterey County,36.685567,-121.5997835
90232,Los Angeles County,34.0236878,-118.3900204
95358,Stanislaus County,37.6107909,-121.1022942
92401,San Bernardino County,34.0971415,-117.2940637
90043,Los Angeles County,33.9903827,-118.3286614
90305,Los Angeles County,33.9596334,-118.3286614
92282,Riverside County,33.9561684,-116.6553351
94804,Contra Costa County,37.9158152,-122.3390936
92231,Imperial County,32.6826471,-115.5799503
90301,Los Angeles County,33.9537917,-118.3520389
92405,San Bernardino County,34.1402037,-117.2970026
95323,Stanislaus County,37.6209117,-120.7005044
92230,Riverside County,33.9155838,-116.7850009
93702,Fresno County,36.7491199,-119.7599761
95203,San Joaquin County,37.9536006,-121.3255688
92241,Riverside County,33.861935,-116.2540856
94589,Solano County,38.1457572,-122.2710602
93646,Fresno County,36.6319889,-119.3018011
94511,Contra Costa County,38.0340942,-121.6340142
95814,Sacramento County,38.5824933,-121.4941738
93534,Los Angeles County,34.6946278,-118.1473771
95207,San Joaquin County,37.9983748,-121.3198491
94601,Alameda County,37.7729273,-122.2143323
92356,San Bernardino County,34.4375566,-116.8910342
95680,Sacramento County,38.2455111,-121.5526993
95612,Yolo County,38.3807344,-121.6054893
92250,Imperial County,32.7674331,-115.2363408
92368,San Bernardino County,34.6498616,-117.2911248
96069,Shasta County,40.6869239,-122.0036217
93550,Los Angeles County,34.3579404,-118.0654445
95838,Sacramento County,38.643335,-121.4570447
95824,Sacramento County,38.517011,-121.4513314
91210,Los Angeles County,34.144801,-118.2563169
92285,San Bernardino County,34.3350492,-116.5373923
95210,San Joaquin County,38.0434058,-121.2969674
95206,San Joaquin County,37.9009213,-121.422761
90291,Los Angeles County,33.9962144,-118.4688776
90016,Los Angeles County,34.0255188,-118.3520389
93640,Fresno County,36.6807956,-120.4127161
94590,Solano County,38.1052454,-122.2483726
95319,Stanislaus County,37.6378847,-120.9006674
92007,San Diego County,33.0170252,-117.2734901
93701,Fresno County,36.7509383,-119.7802409
92411,San Bernardino County,34.1242701,-117.3205123
94603,Alameda County,37.7355719,-122.1802812
95317,Merced County,37.1302486,-120.5163949
96013,Shasta County,41.0249681,-121.6932437
95303,Merced County,37.4727467,-120.6775054
95816,Sacramento County,38.58001840000001,-121.4627576
95328,Stanislaus County,37.5580692,-120.9101738
93591,Los Angeles County,34.5925622,-117.8194197
95820,Sacramento County,38.5359933,-121.4513314
93960,Monterey County,36.4176405,-121.3998995
90026,Los Angeles County,34.0796167,-118.2585096
95351,Stanislaus County,37.6183927,-120.9933678
94519,Contra Costa County,37.9876914,-122.0098642
95205,San Joaquin County,37.9642589,-121.2569138
94801,Contra Costa County,37.9429522,-122.3900901
92252,San Bernardino County,34.193766,-116.2540856
95968,Butte County,39.4159047,-121.5655424
95215,San Joaquin County,37.9434927,-121.1481284
93505,Kern County,35.1146082,-117.9717606
94621,Alameda County,37.7347438,-122.2143323
90254,Los Angeles County,33.8600693,-118.3987842
96065,Shasta County,40.9063814,-121.8967213
90021,Los Angeles County,34.0309258,-118.2380432
95817,Sacramento County,38.5500434,-121.4599012
91108,Los Angeles County,34.1247921,-118.1181199
90266,Los Angeles County,33.8908371,-118.3987842
